satname,norad_id,inclination_deg,eccentricity,mean_motion_rev_per_day,perigee_km,apogee_km,l1,l2
STARLINK-1008,44714,53.1561,0.0003145,15.34363751,460.65950385499673,464.9624601356718,1 44714U 19074B   26099.55497484  .00049101  00000+0  14564-2 0  9999,2 44714  53.1561  34.8845 0003145 135.5572 224.5683 15.34363751353601
STARLINK-1012,44718,53.1606,0.0003546,15.33604789,462.64119569404556,467.4943965354505,1 44718U 19074F   26099.55139536  .00047695  00000+0  14496-2 0  9994,2 44718  53.1606  35.1417 0003546 131.3119 228.8188 15.33604789353593
STARLINK-1017,44723,53.0531,0.0003368,15.27154699,482.0116192838932,486.63417226968795,1 44723U 19074L   26099.20368405  .00042096  00000+0  15641-2 0  9994,2 44723  53.0531  30.3754 0003368 132.6876 227.4406 15.27154699353627
STARLINK-1019,44724,53.0382,0.0003345,15.9326031,290.93470917523064,295.3978110562475,1 44724U 19074M   26100.00002315  .00226415  30601-4  63253-3 0  9998,2 44724  53.0382 338.0466 0003345 248.9097 201.1253 15.93260310  5816
STARLINK-1020,44725,53.1607,0.0002836,15.32758045,465.6463850081627,469.52928013319615,1 44725U 19074N   26099.61117497  .00056206  00000+0  17504-2 0  9992,2 44725  53.1607  60.0426 0002836 122.5110 237.6166 15.32758045353232
STARLINK-1036,44741,53.0464,0.000505,15.62805113,376.14597296079137,382.97124552612786,1 44741U 19074AE  26099.25416161  .00123430  00000+0  13302-2 0  9996,2 44741  53.0464  39.8674 0005050  89.8415 270.3177 15.62805113353499
STARLINK-1039,44744,53.0636,0.0001366,15.2462381,490.9768430812028,492.8537413674394,1 44744U 19074AH  26099.91615105  .00042247  00000+0  16938-2 0  9995,2 44744  53.0636  71.2790 0001366  46.3624 313.7487 15.24623810353113
STARLINK-1042,44747,53.0442,6.03e-05,15.51563489,411.75112113674277,412.5700310244174,1 44747U 19074AL  26099.84781376  .00023196  00000+0  39146-3 0  9993,2 44747  53.0442 305.1080 0000603 210.8877 149.2096 15.51563489354904
STARLINK-1043,44748,53.0521,0.0002671,15.55843736,397.890740849346,401.51146196311674,1 44748U 19074AM  26099.57804148  .00029742  00000+0  42771-3 0  9998,2 44748  53.0521  45.2303 0002671 116.8785 243.2499 15.55843736353454
STARLINK-1046,44751,53.0508,0.000156,15.47737535,422.28519427830815,424.40725704471606,1 44751U 19074AQ  26099.91197533  .00083182  00000+0  15715-2 0  9998,2 44751  53.0508  62.0836 0001560 316.1432  43.9451 15.47737535353241
STARLINK-1047,44752,53.0714,0.0002116,15.33406141,464.2106467740923,467.1069411540984,1 44752U 19074AR  26099.98648060  .00009250  00000+0  29354-3 0  9991,2 44752  53.0714 359.7198 0002116   2.8292 357.2720 15.33406141354140
STARLINK-1048,44753,53.0487,0.0003324,15.59115649,387.96547054197254,392.4650711316244,1 44753U 19074AS  26098.96180982  .00088186  00000+0  11021-2 0  9999,2 44753  53.0487  22.2139 0003324 130.6537 229.4764 15.59115649353717
STARLINK-1063,44768,53.1573,0.0003589,15.33356929,463.348933488649,468.26151521728934,1 44768U 19074BH  26099.94634889  .00055103  00000+0  16844-2 0  9995,2 44768  53.1573  73.9251 0003589 103.3572 256.7830 15.33356929353107
STARLINK-1067,44771,53.0468,0.0006401,15.64353841,370.77499736236314,379.42048848025115,1 44771U 19074BL  26100.00002315  .00087236  00000+0  88990-3 0  9996,2 44771  53.0468  51.5712 0006401  98.6436 179.7823 15.64353841  5900
STARLINK-1068,44772,53.0465,0.0004126,15.68174419,361.34272369576775,366.90643795226333,1 44772U 19074BM  26099.95731714  .00058108  00000+0  51222-3 0  9994,2 44772  53.0465  26.1918 0004126  60.9671 299.1758 15.68174419353747
STARLINK-1114,44927,53.0455,0.0004271,15.56268034,395.57482556502873,401.36340250763897,1 44927U 20001P   26099.69636798  .00083631  00000+0  11635-2 0  9997,2 44927  53.0455 179.8853 0004271 278.6484  81.4043 15.56268034344915
STARLINK-1123,44930,53.1492,0.0003481,15.31121616,470.07997611390874,474.8493649969496,1 44930U 20001S   26099.54441277  .00045339  00000+0  14903-2 0  9995,2 44930  53.1492 201.9042 0003481  13.4243 346.6850 15.31121616344591
STARLINK-1094,44941,53.1566,0.0002124,15.32775999,466.0803541122368,468.9883953122144,1 44941U 20001AD  26099.49594967  .00044755  00000+0  13975-2 0  9995,2 44941  53.1566 176.2931 0002124  33.9906 326.1231 15.32775999344958
STARLINK-1122,44949,53.1588,0.0001672,15.30390709,473.4999205852273,475.79149112206414,1 44949U 20001AM  26099.93007714  .00014565  00000+0  49997-3 0  9991,2 44949  53.1588 174.4959 0001672 102.0128 258.1060 15.30390709345013
STARLINK-1080,44961,53.0499,0.0001366,15.52914392,407.29500198068763,409.1490352645751,1 44961U 20001AZ  26099.37444583  .00077835  00000+0  12257-2 0  9999,2 44961  53.0499 140.9764 0001366 303.3760  56.7118 15.52914392345433
STARLINK-1090,44968,53.1537,0.0003153,15.31511527,469.14225296839777,473.46150912678695,1 44968U 20001BG  26099.44231851  .00039285  00000+0  12784-2 0  9998,2 44968  53.1537 163.6156 0003153  29.5207 330.5971 15.31511527345126
STARLINK-1132,45044,53.1542,0.0004658,15.47703412,420.27801833561716,426.6143732408127,1 45044U 20006A   26099.31447253  .00073096  00000+0  13851-2 0  9994,2 45044  53.1542 108.4075 0004658   4.3957 355.7091 15.47703412341669
STARLINK-1131,45047,53.1586,0.0002172,15.31687227,469.290486785143,472.2656554920468,1 45047U 20006D   26099.42348200  .00044576  00000+0  14402-2 0  9995,2 45047  53.1586 138.1602 0002172  59.4702 300.6513 15.31687227341255
STARLINK-1134,45048,53.0305,0.0004364,15.47825444,420.1206407597956,426.05675054696076,1 45048U 20006E   26099.27469678  .00074447  00000+0  14043-2 0  9993,2 45048  53.0305  92.4378 0004364 305.6237  54.4363 15.47825444341877
STARLINK-1156,45054,53.1574,0.0001214,15.30283967,474.13240404993485,475.7963370627058,1 45054U 20006L   26099.39018778  .00014383  00000+0  49553-3 0  9992,2 45054  53.1574 138.3910 0001214  95.8736 264.2404 15.30283967341246
STARLINK-1159,45057,53.0388,0.0003138,15.95028367,286.143437188015,290.32725247163035,1 45057U 20006P   26100.00002315  .00257266  36952-4  65299-3 0  9990,2 45057  53.0388  75.8629 0003138  85.4717  27.5263 15.95028367  6023
STARLINK-1166,45060,53.0488,0.0003128,15.50640457,412.7301160841789,416.97981185683784,1 45060U 20006S   26099.89269953  .00073719  00000+0  12602-2 0  9999,2 45060  53.0488 123.4469 0003128   7.1238 352.9815 15.50640457341490
STARLINK-1169,45061,53.1541,0.0003554,15.32778518,465.0939255569838,469.95982343897595,1 45061U 20006T   26099.40578210  .00037673  00000+0  11791-2 0  9993,2 45061  53.1541 138.1323 0003554  45.5505 314.5787 15.32778518341256
STARLINK-1171,45062,53.0434,0.000475,15.67389164,363.172644398991,369.5799320227916,1 45062U 20006U   26099.29105706  .00052781  00000+0  48107-3 0  9996,2 45062  53.0434  99.1640 0004750  62.8321 297.3179 15.67389164341786
STARLINK-1133,45064,53.1593,0.0001804,15.30338595,473.5650108969603,476.0375510287313,1 45064U 20006W   26099.36322146  .00019850  00000+0  67763-3 0  9994,2 45064  53.1593 115.3240 0001804  62.8695 297.2489 15.30338595341575
STARLINK-1167,45071,53.1572,0.0004192,15.32246496,466.24103676849154,471.9817698298184,1 45071U 20006AD  26099.31962666  .00050543  00000+0  16017-2 0  9993,2 45071  53.1572 115.5086 0004192  60.0801 300.0617 15.32246496341567
STARLINK-1168,45072,53.1574,0.0001502,15.302912,473.9134435997148,475.97210876447934,1 45072U 20006AE  26099.34440967  .00027134  00000+0  92232-3 0  9996,2 45072  53.1574 115.6196 0001502  83.5998 276.5173 15.30291200341567
STARLINK-1172,45074,53.1565,0.0003267,15.3320334,464.0262138103435,468.49834429927887,1 45074U 20006AG  26099.31457353  .00050289  00000+0  15468-2 0  9994,2 45074  53.1565 115.2890 0003267  59.3330 300.7994 15.33203340341569
STARLINK-1153,45080,53.1601,0.0003885,15.323059,466.2743467824539,471.5945212866982,1 45080U 20006AN  26099.30358773  .00058520  00000+0  18473-2 0  9991,2 45080  53.1601 115.4977 0003885  72.3789 287.7637 15.32305900341566
STARLINK-1151,45081,53.052,0.0005116,15.69696525,356.3182001653731,363.21242180997524,1 45081U 20006AP  26099.17841261  .00063235  00000+0  52278-3 0  9997,2 45081  53.0520  89.6361 0005116  72.4610 287.6965 15.69696525341905
STARLINK-1185,45087,53.161,0.0001826,15.39801748,445.4488463458574,447.94127501441744,1 45087U 20006AV  26098.71535423  .00060649  00000+0  15051-2 0  9995,2 45087  53.1610 101.7710 0001826  89.9873 270.1341 15.39801748341709
STARLINK-1183,45088,53.1612,0.0001705,15.30278019,473.8136718341739,476.1505854570423,1 45088U 20006AW  26099.32001658  .00007408  00000+0  26136-3 0  9993,2 45088  53.1612 100.3041 0001705  69.3114 290.8070 15.30278019341775
STARLINK-1152,45096,53.0383,0.0002764,15.42578424,436.6185812728836,440.3868196993117,1 45096U 20006BE  26099.60918515  .00027901  00000+0  63920-3 0  9994,2 45096  53.0383  60.1902 0002764  25.2818 334.8322 15.42578424342355
STARLINK-1184,45098,53.0516,0.0001851,15.1188697,529.1668868421293,531.7244441448956,1 45098U 20006BG  26099.29044725  .00026565  00000+0  15458-2 0  9991,2 45098  53.0516 107.0544 0001851 225.7500 134.3340 15.11886970341669
STARLINK-1193,45100,53.0505,0.0006785,15.60345322,382.0688990073113,391.248726925508,1 45100U 20006BJ  26099.17738798  .00084832  00000+0  10116-2 0  9999,2 45100  53.0505  82.2888 0006785  64.3601 295.8112 15.60345322342000
STARLINK-1143,45179,53.0449,0.0004086,15.70988505,353.3190426803858,358.8222371637312,1 45179U 20012B   26099.50265831  .00118967  00000+0  92200-3 0  9994,2 45179  53.0449 178.2714 0004086 278.8615  81.1939 15.70988505340756
STARLINK-1202,45183,53.1563,5.02e-05,15.30115468,475.12342740929125,475.8115292989187,1 45183U 20012F   26098.86413380  .00013845  00000+0  47994-3 0  9990,2 45183  53.1563 259.0939 0000502  74.4653 285.6403 15.30115468339578
STARLINK-1216,45185,53.1583,8.92e-05,15.3036608,474.1079545461189,475.3305040974292,1 45185U 20012H   26099.70342303  .00037129  00000+0  12530-2 0  9990,2 45185  53.1583 255.1710 0000892  68.6579 291.4517 15.30366080339647
